0 FENGYUN 1C DEB
1 31984U 99025CPM 13282.83514696  .00000372  00000-0  19951-3 0  2272
2 31984 098.8990 293.7986 0067813 071.4456 289.4735 14.17787462325843
0 FENGYUN 1C DEB
1 31984U 99025CPM 13286.29314054  .00000425  00000-0  22505-3 0  2281
2 31984 098.8950 297.2580 0067800 061.5215 299.2821 14.17791675326338
0 FENGYUN 1C DEB
1 31984U 99025CPM 13290.80970049  .00000478  00000-0  25038-3 0  2298
2 31984 098.8963 301.7814 0067921 049.2742 311.4575 14.17797483326971
0 FENGYUN 1C DEB
1 31984U 99025CPM 13293.84424570  .00000498  00000-0  25992-3 0  2301
2 31984 098.8943 304.8159 0068028 039.8492 320.7816 14.17801438327407
0 FENGYUN 1C DEB
1 31984U 99025CPM 13295.82022274  .00000522  00000-0  27176-3 0  2311
2 31984 098.8935 306.7926 0066086 035.2477 325.3505 14.17804461327681
